[{"OBJECT_NAME":"STARLINK-3355","OBJECT_ID":"2022-001F","EPOCH":"2026-03-09T11:24:42.733440","MEAN_MOTION":15.0883015,"ECCENTRICITY":0.00013965,"INCLINATION":53.2175,"RA_OF_ASC_NODE":160.0827,"ARG_OF_PERICENTER":109.4344,"MEAN_ANOMALY":250.6799,"EPHEMERIS_TYPE":0,"CLASSIFICATION_TYPE":"U","NORAD_CAT_ID":50808,"ELEMENT_SET_NO":999,"REV_AT_EPOCH":23051,"BSTAR":-3.907786e-6,"MEAN_MOTION_DOT":-3.5e-6,"MEAN_MOTION_DDOT":0},{"OBJECT_NAME":"COSMOS 2251 DEB","OBJECT_ID":"1993-036AL","EPOCH":"2026-03-09T15:08:47.217120","MEAN_MOTION":15.1034549,"ECCENTRICITY":0.0030621,"INCLINATION":74.0303,"RA_OF_ASC_NODE":257.926,"ARG_OF_PERICENTER":317.2462,"MEAN_ANOMALY":110.0671,"EPHEMERIS_TYPE":0,"CLASSIFICATION_TYPE":"U","NORAD_CAT_ID":33795,"ELEMENT_SET_NO":999,"REV_AT_EPOCH":91331,"BSTAR":0.001367,"MEAN_MOTION_DOT":0.00022707,"MEAN_MOTION_DDOT":0}]
